{
  "norad_id": 65365,
  "name": "STARLINK-34710",
  "history": [
    {
      "epoch": "2026-03-28T09:21:43.502112Z",
      "apogee_km": 475.989833353241,
      "perigee_km": 474.3973934519099,
      "latitude_deg": 4.6950869073066275e-05,
      "longitude_deg": 115.40805332896693,
      "height_km": 476.27270908076827,
      "semi_major_axis_km": 6853.330613402575,
      "eccentricity": 0.00011618,
      "inclination_deg": 53.1596,
      "raan_deg": 81.6505,
      "arg_perigee_deg": 103.1309,
      "mean_anomaly_deg": 256.9822,
      "mean_motion_rev_day": 15.30207186
    },
    {
      "epoch": "2026-03-29T05:44:24.888480Z",
      "apogee_km": 476.12486457007344,
      "perigee_km": 474.2566474237883,
      "latitude_deg": 1.230191889800092e-05,
      "longitude_deg": 164.95298278600768,
      "height_km": 476.11603409941495,
      "semi_major_axis_km": 6853.32775599693,
      "eccentricity": 0.0001363,
      "inclination_deg": 53.1596,
      "raan_deg": 77.7048,
      "arg_perigee_deg": 91.6792,
      "mean_anomaly_deg": 268.4365,
      "mean_motion_rev_day": 15.30208143
    },
    {
      "epoch": "2026-03-30T05:15:13.022208Z",
      "apogee_km": 476.0696772158053,
      "perigee_km": 474.31166160204793,
      "latitude_deg": 3.680911312029529e-05,
      "longitude_deg": 166.7355846714518,
      "height_km": 476.27154253336096,
      "semi_major_axis_km": 6853.327669408926,
      "eccentricity": 0.00012826,
      "inclination_deg": 53.1605,
      "raan_deg": 73.1536,
      "arg_perigee_deg": 101.9982,
      "mean_anomaly_deg": 258.1163,
      "mean_motion_rev_day": 15.30208172
    },
    {
      "epoch": "2026-03-30T08:23:19.278816Z",
      "apogee_km": 475.67266695490616,
      "perigee_km": 474.67194672992173,
      "latitude_deg": 2.4500391349717002e-05,
      "longitude_deg": 118.97505364963567,
      "height_km": 476.17230786472084,
      "semi_major_axis_km": 6853.309306842414,
      "eccentricity": 7.301e-05,
      "inclination_deg": 53.1605,
      "raan_deg": 72.5479,
      "arg_perigee_deg": 101.6609,
      "mean_anomaly_deg": 258.4474,
      "mean_motion_rev_day": 15.30214322
    },
    {
      "epoch": "2026-03-30T22:29:48.355008Z",
      "apogee_km": 476.5542031276873,
      "perigee_km": 473.80725631526093,
      "latitude_deg": 2.7523265444905867e-05,
      "longitude_deg": -95.95769234086261,
      "height_km": 476.187926006707,
      "semi_major_axis_km": 6853.317729721474,
      "eccentricity": 0.00020041,
      "inclination_deg": 53.1593,
      "raan_deg": 69.8157,
      "arg_perigee_deg": 94.6034,
      "mean_anomaly_deg": 265.5196,
      "mean_motion_rev_day": 15.30211501
    },
    {
      "epoch": "2026-03-31T15:44:23.370720Z",
      "apogee_km": 475.8700652023126,
      "perigee_km": 474.4541736042438,
      "latitude_deg": -1.1493832916621645e-05,
      "longitude_deg": 1.3513334744390124,
      "height_km": 476.151750085407,
      "semi_major_axis_km": 6853.299119403278,
      "eccentricity": 0.0001033,
      "inclination_deg": 53.1603,
      "raan_deg": 66.4788,
      "arg_perigee_deg": 97.4003,
      "mean_anomaly_deg": 262.7115,
      "mean_motion_rev_day": 15.30217734
    },
    {
      "epoch": "2026-04-01T15:15:11.592576Z",
      "apogee_km": 476.2010887905262,
      "perigee_km": 474.1779867965697,
      "latitude_deg": 3.780361405449908e-05,
      "longitude_deg": 3.133586252192099,
      "height_km": 476.21550363326895,
      "semi_major_axis_km": 6853.326537793548,
      "eccentricity": 0.0001476,
      "inclination_deg": 53.1599,
      "raan_deg": 61.9276,
      "arg_perigee_deg": 97.2796,
      "mean_anomaly_deg": 262.8373,
      "mean_motion_rev_day": 15.30208551
    },
    {
      "epoch": "2026-04-02T21:02:11.678784Z",
      "apogee_km": 476.0290805008035,
      "perigee_km": 474.1992624380209,
      "latitude_deg": -4.3815529727965655e-05,
      "longitude_deg": -90.6029917149831,
      "height_km": 476.1679955402769,
      "semi_major_axis_km": 6853.251171469412,
      "eccentricity": 0.0001335,
      "inclination_deg": 53.1614,
      "raan_deg": 56.1646,
      "arg_perigee_deg": 99.7948,
      "mean_anomaly_deg": 260.3203,
      "mean_motion_rev_day": 15.30233793
    },
    {
      "epoch": "2026-04-02T21:02:11.679648Z",
      "apogee_km": 476.0288063707567,
      "perigee_km": 474.19953656806774,
      "latitude_deg": -4.0177397264721375e-05,
      "longitude_deg": -90.60299261441715,
      "height_km": 476.16794890571424,
      "semi_major_axis_km": 6853.251171469412,
      "eccentricity": 0.00013346,
      "inclination_deg": 53.1614,
      "raan_deg": 56.1646,
      "arg_perigee_deg": 99.7948,
      "mean_anomaly_deg": 260.3203,
      "mean_motion_rev_day": 15.30233793
    },
    {
      "epoch": "2026-04-03T06:26:30.904800Z",
      "apogee_km": 476.02185418087447,
      "perigee_km": 474.3523844254123,
      "latitude_deg": -4.112455458776284e-05,
      "longitude_deg": 126.1110383435548,
      "height_km": 475.8697384425266,
      "semi_major_axis_km": 6853.324119303143,
      "eccentricity": 0.0001218,
      "inclination_deg": 53.1607,
      "raan_deg": 54.345,
      "arg_perigee_deg": 75.0265,
      "mean_anomaly_deg": 285.087,
      "mean_motion_rev_day": 15.30209361
    },
    {
      "epoch": "2026-04-04T13:47:35.643840Z",
      "apogee_km": 476.20050802273363,
      "perigee_km": 474.1869994472863,
      "latitude_deg": -2.3695139986988082e-05,
      "longitude_deg": 8.485451914404722,
      "height_km": 475.9473993226496,
      "semi_major_axis_km": 6853.330753735009,
      "eccentricity": 0.0001469,
      "inclination_deg": 53.1609,
      "raan_deg": 48.2767,
      "arg_perigee_deg": 81.7604,
      "mean_anomaly_deg": 278.3563,
      "mean_motion_rev_day": 15.30207139
    },
    {
      "epoch": "2026-04-05T13:18:22.941216Z",
      "apogee_km": 476.24031708997063,
      "perigee_km": 474.15005077387104,
      "latitude_deg": -4.3764288448214556e-05,
      "longitude_deg": 10.272412893128806,
      "height_km": 476.202547116065,
      "semi_major_axis_km": 6853.332183931921,
      "eccentricity": 0.0001525,
      "inclination_deg": 53.1602,
      "raan_deg": 43.7264,
      "arg_perigee_deg": 96.0196,
      "mean_anomaly_deg": 264.0978,
      "mean_motion_rev_day": 15.3020666
    },
    {
      "epoch": "2026-04-06T06:32:58.721568Z",
      "apogee_km": 475.9873839783759,
      "perigee_km": 474.4937588704588,
      "latitude_deg": -3.6675810592453196e-05,
      "longitude_deg": 107.5802758677509,
      "height_km": 476.2402363635846,
      "semi_major_axis_km": 6853.377571424417,
      "eccentricity": 0.00010897,
      "inclination_deg": 53.1598,
      "raan_deg": 40.3915,
      "arg_perigee_deg": 97.7999,
      "mean_anomaly_deg": 262.3125,
      "mean_motion_rev_day": 15.30191459
    },
    {
      "epoch": "2026-04-07T12:19:58.886400Z",
      "apogee_km": 475.696879788622,
      "perigee_km": 474.68423210895526,
      "latitude_deg": 1.2979307572766117e-05,
      "longitude_deg": 13.841462835115607,
      "height_km": 475.8949803584027,
      "semi_major_axis_km": 6853.327555948788,
      "eccentricity": 7.388e-05,
      "inclination_deg": 53.1592,
      "raan_deg": 34.6265,
      "arg_perigee_deg": 67.4277,
      "mean_anomaly_deg": 292.6802,
      "mean_motion_rev_day": 15.3020821
    },
    {
      "epoch": "2026-04-07T20:10:15.141792Z",
      "apogee_km": 476.49004096041335,
      "perigee_km": 473.89262952135687,
      "latitude_deg": -2.722764581269587e-05,
      "longitude_deg": -105.56288788806403,
      "height_km": 476.3818172873412,
      "semi_major_axis_km": 6853.328335240884,
      "eccentricity": 0.0001895,
      "inclination_deg": 53.1595,
      "raan_deg": 33.1118,
      "arg_perigee_deg": 103.051,
      "mean_anomaly_deg": 257.0702,
      "mean_motion_rev_day": 15.30207949
    },
    {
      "epoch": "2026-04-08T05:34:34.397184Z",
      "apogee_km": 475.816802718281,
      "perigee_km": 474.61897335095,
      "latitude_deg": -2.2109770287222355e-05,
      "longitude_deg": 111.1469199929966,
      "height_km": 475.9586962216919,
      "semi_major_axis_km": 6853.354888034615,
      "eccentricity": 8.739e-05,
      "inclination_deg": 53.1593,
      "raan_deg": 31.2881,
      "arg_perigee_deg": 74.7265,
      "mean_anomaly_deg": 285.3832,
      "mean_motion_rev_day": 15.30199056
    }
  ]
}